0 DELTA 1 DEB
1 12538U 76077DT  13283.56223503 -.00000002  00000-0  44197-3 0  9631
2 12538 102.6027 046.6582 0198251 140.1337 284.7580 12.05328015474382
0 DELTA 1 DEB
1 12538U 76077DT  13285.82697144  .00000144  00000-0  20462-2 0  9643
2 12538 102.6034 048.8518 0198192 136.3065 031.8577 12.05326885474652
0 DELTA 1 DEB
1 12538U 76077DT  13288.28542863  .00000251  00000-0  32175-2 0  9657
2 12538 102.6042 051.2334 0198113 132.1492 259.5417 12.05327245474952
0 DELTA 1 DEB
1 12538U 76077DT  13290.61889134  .00000239  00000-0  30847-2 0  9663
2 12538 102.6045 053.4941 0198057 128.2040 304.8551 12.05329337475234
0 DELTA 1 DEB
1 12538U 76077DT  13293.20239707  .00000043  00000-0  93798-3 0  9675
2 12538 102.6047 055.9970 0198028 123.8297 355.1635 12.05331511475541
0 DELTA 1 DEB
1 12538U 76077DT  13295.34827431 -.00000142  00000-0 -10850-2 0  9689
2 12538 102.6047 058.0760 0197973 120.2007 306.5290 12.05333333475800
